GSAT0209 (PRN E09)      
1 41174U 15079A   17344.97138022  .00000070  00000-0  00000+0 0  9996
2 41174  54.9172 186.8304 0003088 314.5088  45.5282  1.70473465 12337
